{"type":"FeatureCollection","source":"OpenStreetMap Overpass cached tram_stop nodes in geo/data/osm_tramstops_<route>.json","features":[{"type":"Feature","geometry":{"type":"Point","coordinates":[37.6614748,55.7300191]},"properties":{"osm_id":60672864,"name":"Динамовская улица","routes":[12]}},{"type":"Feature","geometry":{"type":"Point","coordinates":[37.6641088,55.7236276]},"properties":{"osm_id":60672869,"name":"Шарикоподшипниковская улица","routes":[12]}},{"type":"Feature","geometry":{"type":"Point","coordinates":[37.6738955,55.7209155]},"properties":{"osm_id":60672874,"name":"Новоостаповская улица","routes":[12]}},{"type":"Feature","geometry":{"type":"Point","coordinates":[37.6054157,55.6563013]},"properties":{"osm_id":60792114,"name":"Болотниковская улица","routes":[1]}},{"type":"Feature","geometry":{"type":"Point","coordinates":[37.6849464,55.815722]},"properties":{"osm_id":239836747,"name":"Ростокинский проезд","routes":[11]}},{"type":"Feature","geometry":{"type":"Point","coordinates":[37.6460711,55.8272146]},"properties":{"osm_id":243894862,"name":"ВДНХ (северный вход)","routes":[11,17]}},{"type":"Feature","geometry":{"type":"Point","coordinates":[37.6652471,55.842943]},"properties":{"osm_id":243896132,"name":"МЦК Ростокино","routes":[17]}},{"type":"Feature","geometry":{"type":"Point","coordinates":[37.7161454,55.7515552]},"properties":{"osm_id":250722843,"name":"Метро «Авиамоторная»","routes":[12]}},{"type":"Feature","geometry":{"type":"Point","coordinates":[37.6634006,55.7269009]},"properties":{"osm_id":252906073,"name":"Арбатецкая улица","routes":[12]}},{"type":"Feature","geometry":{"type":"Point","coordinates":[37.6685871,55.7219704]},"properties":{"osm_id":253063603,"name":"ЦНИИТМАШ","routes":[12]}},{"type":"Feature","geometry":{"type":"Point","coordinates":[37.6582215,55.8370466]},"properties":{"osm_id":273091182,"name":"Улица Докукина","routes":[17]}},{"type":"Feature","geometry":{"type":"Point","coordinates":[37.6941724,55.8148527]},"properties":{"osm_id":275350289,"name":"Богородский храм","routes":[11]}},{"type":"Feature","geometry":{"type":"Point","coordinates":[37.7506449,55.7865575]},"properties":{"osm_id":275634389,"name":"Метро «Партизанская»","routes":[11,12]}},{"type":"Feature","geometry":{"type":"Point","coordinates":[37.7603431,55.7867745]},"properties":{"osm_id":275634390,"name":"Главная аллея","routes":[11,12]}},{"type":"Feature","geometry":{"type":"Point","coordinates":[37.6713237,55.8191196]},"properties":{"osm_id":287393722,"name":"Станция юных натуралистов","routes":[11]}},{"type":"Feature","geometry":{"type":"Point","coordinates":[37.678796,55.8173411]},"properties":{"osm_id":287393729,"name":"Лингвистический университет","routes":[11]}},{"type":"Feature","geometry":{"type":"Point","coordinates":[37.6840045,55.8154337]},"properties":{"osm_id":287393738,"name":"Ростокинский проезд","routes":[11]}},{"type":"Feature","geometry":{"type":"Point","coordinates":[37.6894557,55.8167445]},"properties":{"osm_id":287393749,"name":"Богатырский мост","routes":[11]}},{"type":"Feature","geometry":{"type":"Point","coordinates":[37.6765102,55.7178206]},"properties":{"osm_id":316393161,"name":"Метро «Дубровка»","routes":[12]}},{"type":"Feature","geometry":{"type":"Point","coordinates":[37.6784707,55.7152408]},"properties":{"osm_id":316393162,"name":"МЦК Дубровка","routes":[12]}},{"type":"Feature","geometry":{"type":"Point","coordinates":[37.6563076,55.7754616]},"properties":{"osm_id":387747233,"name":"Метро «Комсомольская»","routes":[7]}},{"type":"Feature","geometry":{"type":"Point","coordinates":[37.608551,55.6584318]},"properties":{"osm_id":428062933,"name":"Москворецкий рынок","routes":[1]}},{"type":"Feature","geometry":{"type":"Point","coordinates":[37.6157775,55.8235904]},"properties":{"osm_id":444863659,"name":"Усадьба Останкино","routes":[11,17]}},{"type":"Feature","geometry":{"type":"Point","coordinates":[37.7021017,55.7487951]},"properties":{"osm_id":471763710,"name":"Душинская улица","routes":[12]}},{"type":"Feature","geometry":{"type":"Point","coordinates":[37.7342126,55.8142355]},"properties":{"osm_id":471831418,"name":"Метро «Бульвар Рокоссовского»","routes":[7]}},{"type":"Feature","geometry":{"type":"Point","coordinates":[37.7327079,55.8152431]},"properties":{"osm_id":471836117,"name":"Метро «Бульвар Рокоссовского»","routes":[7]}},{"type":"Feature","geometry":{"type":"Point","coordinates":[37.6555161,55.7752772]},"properties":{"osm_id":471943151,"name":"Метро «Комсомольская»","routes":[7]}},{"type":"Feature","geometry":{"type":"Point","coordinates":[37.665607,55.7792274]},"properties":{"osm_id":471943152,"name":"Метро «Красносельская»","routes":[7]}},{"type":"Feature","geometry":{"type":"Point","coordinates":[37.6789495,55.7452034]},"properties":{"osm_id":472373349,"name":"Библиотечная улица","routes":[12]}},{"type":"Feature","geometry":{"type":"Point","coordinates":[37.6743521,55.74053]},"properties":{"osm_id":472373351,"name":"Малая Андроньевская улица","routes":[12]}},{"type":"Feature","geometry":{"type":"Point","coordinates":[37.6705882,55.7354342]},"properties":{"osm_id":472383741,"name":"Кинотеатр «Победа»","routes":[12]}},{"type":"Feature","geometry":{"type":"Point","coordinates":[37.6128558,55.7795009]},"properties":{"osm_id":473120396,"name":"4-й Самотёчный переулок","routes":[7]}},{"type":"Feature","geometry":{"type":"Point","coordinates":[37.6169873,55.778521]},"properties":{"osm_id":473120397,"name":"Самотёчная улица","routes":[7]}},{"type":"Feature","geometry":{"type":"Point","coordinates":[37.6298101,55.7783133]},"properties":{"osm_id":473120399,"name":"Улица Щепкина","routes":[7]}},{"type":"Feature","geometry":{"type":"Point","coordinates":[37.630905,55.7792951]},"properties":{"osm_id":473120400,"name":"Улица Гиляровского","routes":[7]}},{"type":"Feature","geometry":{"type":"Point","coordinates":[37.6343838,55.7804065]},"properties":{"osm_id":473120401,"name":"Метро «Проспект Мира»","routes":[7]}},{"type":"Feature","geometry":{"type":"Point","coordinates":[37.6399804,55.7798197]},"properties":{"osm_id":473120402,"name":"Ботанический переулок","routes":[7]}},{"type":"Feature","geometry":{"type":"Point","coordinates":[37.6414789,55.7797137]},"properties":{"osm_id":473120403,"name":"Астраханский переулок","routes":[7]}},{"type":"Feature","geometry":{"type":"Point","coordinates":[37.6454248,55.7793525]},"properties":{"osm_id":473120404,"name":"Пантелеевская улица","routes":[7]}},{"type":"Feature","geometry":{"type":"Point","coordinates":[37.6615391,55.7300282]},"properties":{"osm_id":476913289,"name":"Динамовская улица","routes":[12]}},{"type":"Feature","geometry":{"type":"Point","coordinates":[37.663341,55.7268893]},"properties":{"osm_id":476913290,"name":"Арбатецкая улица","routes":[12]}},{"type":"Feature","geometry":{"type":"Point","coordinates":[37.6640216,55.72433]},"properties":{"osm_id":476913291,"name":"Шарикоподшипниковская улица","routes":[12]}},{"type":"Feature","geometry":{"type":"Point","coordinates":[37.6782884,55.7154054]},"properties":{"osm_id":476913292,"name":"МЦК Дубровка","routes":[12]}},{"type":"Feature","geometry":{"type":"Point","coordinates":[37.6701423,55.7347509]},"properties":{"osm_id":476918452,"name":"Кинотеатр «Победа»","routes":[12]}},{"type":"Feature","geometry":{"type":"Point","coordinates":[37.6726175,55.7381139]},"properties":{"osm_id":477335826,"name":"Абельмановская Застава","routes":[12]}},{"type":"Feature","geometry":{"type":"Point","coordinates":[37.7301625,55.7678082]},"properties":{"osm_id":496982780,"name":"8-я улица Соколиной Горы","routes":[12]}},{"type":"Feature","geometry":{"type":"Point","coordinates":[37.6378787,55.8716961]},"properties":{"osm_id":534957374,"name":"МФЦ «Южное Медведково»","routes":[17]}},{"type":"Feature","geometry":{"type":"Point","coordinates":[37.6369974,55.8744708]},"properties":{"osm_id":534957377,"name":"Культурно-досуговый центр","routes":[17]}},{"type":"Feature","geometry":{"type":"Point","coordinates":[37.6462401,55.8715629]},"properties":{"osm_id":534957378,"name":"Проезд Шокальского","routes":[17]}},{"type":"Feature","geometry":{"type":"Point","coordinates":[37.6586348,55.8704168]},"properties":{"osm_id":534957379,"name":"Улица Менжинского, 38","routes":[17]}},{"type":"Feature","geometry":{"type":"Point","coordinates":[37.6515958,55.8714629]},"properties":{"osm_id":534957381,"name":"Сухонская улица","routes":[17]}},{"type":"Feature","geometry":{"type":"Point","coordinates":[37.636213,55.8788513]},"properties":{"osm_id":534957382,"name":"Улица Молодцова","routes":[17]}},{"type":"Feature","geometry":{"type":"Point","coordinates":[37.6390216,55.8817849]},"properties":{"osm_id":534957383,"name":"Поликлиника","routes":[17]}},{"type":"Feature","geometry":{"type":"Point","coordinates":[37.6418096,55.8847048]},"properties":{"osm_id":534957384,"name":"Улица Тихомирова","routes":[17]}},{"type":"Feature","geometry":{"type":"Point","coordinates":[37.6429552,55.8865575]},"properties":{"osm_id":534957385,"name":"Медведково","routes":[17]}},{"type":"Feature","geometry":{"type":"Point","coordinates":[37.66147,55.8642419]},"properties":{"osm_id":534957386,"name":"Печорская улица","routes":[17]}},{"type":"Feature","geometry":{"type":"Point","coordinates":[37.663503,55.8682098]},"properties":{"osm_id":534957387,"name":"Метро «Бабушкинская»","routes":[17]}},{"type":"Feature","geometry":{"type":"Point","coordinates":[37.6221282,55.8218859]},"properties":{"osm_id":535516828,"name":"Аргуновская улица","routes":[11,17]}},{"type":"Feature","geometry":{"type":"Point","coordinates":[37.6382716,55.8238048]},"properties":{"osm_id":535516842,"name":"Метро «ВДНХ»","routes":[11,17]}},{"type":"Feature","geometry":{"type":"Point","coordinates":[37.6460967,55.8272421]},"properties":{"osm_id":535516914,"name":"ВДНХ (северный вход)","routes":[11,17]}},{"type":"Feature","geometry":{"type":"Point","coordinates":[37.6494839,55.8296408]},"properties":{"osm_id":535516918,"name":"Улица Сергея Эйзенштейна","routes":[17]}},{"type":"Feature","geometry":{"type":"Point","coordinates":[37.6528158,55.8327291]},"properties":{"osm_id":535516922,"name":"Сельскохозяйственная улица","routes":[17]}},{"type":"Feature","geometry":{"type":"Point","coordinates":[37.657987,55.8369197]},"properties":{"osm_id":535516927,"name":"Улица Докукина","routes":[17]}},{"type":"Feature","geometry":{"type":"Point","coordinates":[37.6652301,55.8429843]},"properties":{"osm_id":535516930,"name":"МЦК Ростокино","routes":[17]}},{"type":"Feature","geometry":{"type":"Point","coordinates":[37.6690538,55.8457135]},"properties":{"osm_id":535516937,"name":"Северянинский путепровод","routes":[17]}},{"type":"Feature","geometry":{"type":"Point","coordinates":[37.670591,55.8505492]},"properties":{"osm_id":535516942,"name":"Социальный фонд России","routes":[17]}},{"type":"Feature","geometry":{"type":"Point","coordinates":[37.6600682,55.859861]},"properties":{"osm_id":535516946,"name":"Радужная улица","routes":[17]}},{"type":"Feature","geometry":{"type":"Point","coordinates":[37.6614864,55.857058]},"properties":{"osm_id":535516949,"name":"Верхоянская улица","routes":[17]}},{"type":"Feature","geometry":{"type":"Point","coordinates":[37.6650967,55.8545022]},"properties":{"osm_id":535516954,"name":"Берингов проезд","routes":[17]}},{"type":"Feature","geometry":{"type":"Point","coordinates":[37.6213391,55.8218598]},"properties":{"osm_id":535844745,"name":"Аргуновская улица","routes":[11,17]}},{"type":"Feature","geometry":{"type":"Point","coordinates":[37.6336906,55.8220741]},"properties":{"osm_id":535844754,"name":"ВДНХ (южный вход)","routes":[11,17]}},{"type":"Feature","geometry":{"type":"Point","coordinates":[37.6387399,55.8240069]},"properties":{"osm_id":535844761,"name":"Метро «ВДНХ»","routes":[11,17]}},{"type":"Feature","geometry":{"type":"Point","coordinates":[37.6488419,55.8289817]},"properties":{"osm_id":535844764,"name":"Улица Сергея Эйзенштейна","routes":[17]}},{"type":"Feature","geometry":{"type":"Point","coordinates":[37.6519639,55.8318212]},"properties":{"osm_id":535844768,"name":"Сельскохозяйственная улица","routes":[17]}},{"type":"Feature","geometry":{"type":"Point","coordinates":[37.6694964,55.8459816]},"properties":{"osm_id":535844771,"name":"Северянинский путепровод","routes":[17]}},{"type":"Feature","geometry":{"type":"Point","coordinates":[37.6706063,55.8507675]},"properties":{"osm_id":535844774,"name":"Социальный фонд России","routes":[17]}},{"type":"Feature","geometry":{"type":"Point","coordinates":[37.6370817,55.8743664]},"properties":{"osm_id":535844777,"name":"Культурно-досуговый центр","routes":[17]}},{"type":"Feature","geometry":{"type":"Point","coordinates":[37.6602088,55.8594542]},"properties":{"osm_id":535844779,"name":"Радужная улица","routes":[17]}},{"type":"Feature","geometry":{"type":"Point","coordinates":[37.6481314,55.8716849]},"properties":{"osm_id":535844782,"name":"Проезд Шокальского","routes":[17]}},{"type":"Feature","geometry":{"type":"Point","coordinates":[37.6596176,55.8702948]},"properties":{"osm_id":535844784,"name":"Улица Менжинского, 38","routes":[17]}},{"type":"Feature","geometry":{"type":"Point","coordinates":[37.6523153,55.8714122]},"properties":{"osm_id":535844788,"name":"Сухонская улица","routes":[17]}},{"type":"Feature","geometry":{"type":"Point","coordinates":[37.6360426,55.8779406]},"properties":{"osm_id":535844790,"name":"Улица Молодцова","routes":[17]}},{"type":"Feature","geometry":{"type":"Point","coordinates":[37.6429789,55.8875052]},"properties":{"osm_id":535844808,"name":"Медведково","routes":[17]}},{"type":"Feature","geometry":{"type":"Point","coordinates":[37.6619052,55.8567262]},"properties":{"osm_id":535844810,"name":"Верхоянская улица","routes":[17]}},{"type":"Feature","geometry":{"type":"Point","coordinates":[37.6647293,55.8547765]},"properties":{"osm_id":535844813,"name":"Берингов проезд","routes":[17]}},{"type":"Feature","geometry":{"type":"Point","coordinates":[37.6616972,55.8645961]},"properties":{"osm_id":535844816,"name":"Печорская улица","routes":[17]}},{"type":"Feature","geometry":{"type":"Point","coordinates":[37.6635791,55.8682878]},"properties":{"osm_id":535844818,"name":"Метро «Бабушкинская»","routes":[17]}},{"type":"Feature","geometry":{"type":"Point","coordinates":[37.628137,55.821823]},"properties":{"osm_id":639572174,"name":"Улица Цандера","routes":[11,17]}},{"type":"Feature","geometry":{"type":"Point","coordinates":[37.7342433,55.8142659]},"properties":{"osm_id":664687258,"name":"Метро «Бульвар Рокоссовского»","routes":[7]}},{"type":"Feature","geometry":{"type":"Point","coordinates":[37.5878379,55.5963145]},"properties":{"osm_id":678963743,"name":"Чертаново Южное","routes":[1]}},{"type":"Feature","geometry":{"type":"Point","coordinates":[37.5884671,55.5989309]},"properties":{"osm_id":678963744,"name":"Поликлиника","routes":[1]}},{"type":"Feature","geometry":{"type":"Point","coordinates":[37.5889036,55.6007754]},"properties":{"osm_id":678963745,"name":"ОВД «Чертаново Южное»","routes":[1]}},{"type":"Feature","geometry":{"type":"Point","coordinates":[37.5893497,55.6026514]},"properties":{"osm_id":678963746,"name":"Чертановская улица, 53","routes":[1]}},{"type":"Feature","geometry":{"type":"Point","coordinates":[37.5901865,55.6060142]},"properties":{"osm_id":678963747,"name":"Кировоградские пруды","routes":[1]}},{"type":"Feature","geometry":{"type":"Point","coordinates":[37.5909438,55.6090792]},"properties":{"osm_id":678963748,"name":"Чертановская улица, 44","routes":[1]}},{"type":"Feature","geometry":{"type":"Point","coordinates":[37.5914997,55.6116699]},"properties":{"osm_id":678963749,"name":"Чертаново-Центральное","routes":[1]}},{"type":"Feature","geometry":{"type":"Point","coordinates":[37.593836,55.6197801]},"properties":{"osm_id":678963751,"name":"Чертановская улица, 28","routes":[1]}},{"type":"Feature","geometry":{"type":"Point","coordinates":[37.5957465,55.6242157]},"properties":{"osm_id":678963752,"name":"Кинотеатр «Ашхабад»","routes":[1]}},{"type":"Feature","geometry":{"type":"Point","coordinates":[37.6008971,55.6311917]},"properties":{"osm_id":678963754,"name":"Футбольная школа «Чертаново»","routes":[1]}},{"type":"Feature","geometry":{"type":"Point","coordinates":[37.6031046,55.6338519]},"properties":{"osm_id":678963755,"name":"Сумской проезд","routes":[1]}},{"type":"Feature","geometry":{"type":"Point","coordinates":[37.6051582,55.6378508]},"properties":{"osm_id":678963756,"name":"Верхний Чертановский пруд","routes":[1]}},{"type":"Feature","geometry":{"type":"Point","coordinates":[37.605568,55.6401092]},"properties":{"osm_id":678963757,"name":"Метро «Чертановская»","routes":[1]}},{"type":"Feature","geometry":{"type":"Point","coordinates":[37.6056042,55.6427412]},"properties":{"osm_id":678963759,"name":"Балаклавский проспект","routes":[1]}},{"type":"Feature","geometry":{"type":"Point","coordinates":[37.6430233,55.8859136]},"properties":{"osm_id":679923004,"name":"Улица Тихомирова","routes":[17]}},{"type":"Feature","geometry":{"type":"Point","coordinates":[37.7237671,55.7529882]},"properties":{"osm_id":695081254,"name":"Дом культуры «Компрессор»","routes":[12]}},{"type":"Feature","geometry":{"type":"Point","coordinates":[37.7368945,55.7605909]},"properties":{"osm_id":695657531,"name":"3-я улица Соколиной Горы","routes":[12]}},{"type":"Feature","geometry":{"type":"Point","coordinates":[37.7324078,55.7654326]},"properties":{"osm_id":695657532,"name":"Проспект Будённого, 24","routes":[12]}},{"type":"Feature","geometry":{"type":"Point","coordinates":[37.7348404,55.7627908]},"properties":{"osm_id":695657533,"name":"5-я улица Соколиной Горы","routes":[12]}},{"type":"Feature","geometry":{"type":"Point","coordinates":[37.7399065,55.7572985]},"properties":{"osm_id":695657534,"name":"Гаражная улица","routes":[12]}},{"type":"Feature","geometry":{"type":"Point","coordinates":[37.7214732,55.7774701]},"properties":{"osm_id":695657538,"name":"Кирпичная улица","routes":[12]}},{"type":"Feature","geometry":{"type":"Point","coordinates":[37.7250942,55.7734858]},"properties":{"osm_id":695657539,"name":"Стадион «Крылья Советов»","routes":[12]}},{"type":"Feature","geometry":{"type":"Point","coordinates":[37.7300351,55.7680317]},"properties":{"osm_id":695657541,"name":"8-я улица Соколиной Горы","routes":[12]}},{"type":"Feature","geometry":{"type":"Point","coordinates":[37.7281916,55.7700618]},"properties":{"osm_id":695657542,"name":"9-я улица Соколиной Горы","routes":[12]}},{"type":"Feature","geometry":{"type":"Point","coordinates":[37.7145508,55.7949786]},"properties":{"osm_id":695657549,"name":"Метро «Преображенская площадь»","routes":[11]}},{"type":"Feature","geometry":{"type":"Point","coordinates":[37.6391258,55.7799462]},"properties":{"osm_id":697485002,"name":"Ботанический переулок","routes":[7]}},{"type":"Feature","geometry":{"type":"Point","coordinates":[37.6345339,55.7804252]},"properties":{"osm_id":697485003,"name":"Метро «Проспект Мира»","routes":[7]}},{"type":"Feature","geometry":{"type":"Point","coordinates":[37.6451873,55.7795661]},"properties":{"osm_id":697485006,"name":"Пантелеевская улица","routes":[7]}},{"type":"Feature","geometry":{"type":"Point","coordinates":[37.6786682,55.8173939]},"properties":{"osm_id":718450763,"name":"Лингвистический университет","routes":[11]}},{"type":"Feature","geometry":{"type":"Point","coordinates":[37.6893623,55.8168065]},"properties":{"osm_id":718450772,"name":"Богатырский мост","routes":[11]}},{"type":"Feature","geometry":{"type":"Point","coordinates":[37.7616821,55.7867695]},"properties":{"osm_id":728258096,"name":"Главная аллея","routes":[11,12]}},{"type":"Feature","geometry":{"type":"Point","coordinates":[37.6762027,55.7181284]},"properties":{"osm_id":736360073,"name":"Метро «Дубровка»","routes":[12]}},{"type":"Feature","geometry":{"type":"Point","coordinates":[37.6691258,55.7219023]},"properties":{"osm_id":736521262,"name":"ЦНИИТМАШ","routes":[12]}},{"type":"Feature","geometry":{"type":"Point","coordinates":[37.6745329,55.7204753]},"properties":{"osm_id":736521267,"name":"Новоостаповская улица","routes":[12]}},{"type":"Feature","geometry":{"type":"Point","coordinates":[37.6674695,55.7327175]},"properties":{"osm_id":736634464,"name":"Метро «Пролетарская»","routes":[12]}},{"type":"Feature","geometry":{"type":"Point","coordinates":[37.7238732,55.7530488]},"properties":{"osm_id":800886899,"name":"Дом культуры «Компрессор»","routes":[12]}},{"type":"Feature","geometry":{"type":"Point","coordinates":[37.7157334,55.7515035]},"properties":{"osm_id":800886916,"name":"Метро «Авиамоторная»","routes":[12]}},{"type":"Feature","geometry":{"type":"Point","coordinates":[37.6890012,55.7474223]},"properties":{"osm_id":800893049,"name":"МЦД Москва-Товарная","routes":[12]}},{"type":"Feature","geometry":{"type":"Point","coordinates":[37.6772973,55.7436048]},"properties":{"osm_id":801201701,"name":"Новорогожская улица","routes":[12]}},{"type":"Feature","geometry":{"type":"Point","coordinates":[37.6883945,55.7473516]},"properties":{"osm_id":846185156,"name":"МЦД Москва-Товарная","routes":[12]}},{"type":"Feature","geometry":{"type":"Point","coordinates":[37.6927756,55.7476718]},"properties":{"osm_id":846185158,"name":"Старообрядческая улица","routes":[12]}},{"type":"Feature","geometry":{"type":"Point","coordinates":[37.6819477,55.746866]},"properties":{"osm_id":846185163,"name":"Метро «Площадь Ильича»","routes":[12]}},{"type":"Feature","geometry":{"type":"Point","coordinates":[37.5986893,55.6286706]},"properties":{"osm_id":952273050,"name":"Школьный парк","routes":[1]}},{"type":"Feature","geometry":{"type":"Point","coordinates":[37.6051947,55.6377496]},"properties":{"osm_id":952302288,"name":"Верхний Чертановский пруд","routes":[1]}},{"type":"Feature","geometry":{"type":"Point","coordinates":[37.5893735,55.6024436]},"properties":{"osm_id":952302293,"name":"Чертановская улица, 53","routes":[1]}},{"type":"Feature","geometry":{"type":"Point","coordinates":[37.5959206,55.6244807]},"properties":{"osm_id":952302296,"name":"Кинотеатр «Ашхабад»","routes":[1]}},{"type":"Feature","geometry":{"type":"Point","coordinates":[37.5879502,55.5965297]},"properties":{"osm_id":952302299,"name":"Чертаново Южное","routes":[1]}},{"type":"Feature","geometry":{"type":"Point","coordinates":[37.6038333,55.6348666]},"properties":{"osm_id":952302312,"name":"Сумской проезд","routes":[1]}},{"type":"Feature","geometry":{"type":"Point","coordinates":[37.588924,55.600591]},"properties":{"osm_id":952302321,"name":"ОВД «Чертаново Южное»","routes":[1]}},{"type":"Feature","geometry":{"type":"Point","coordinates":[37.5937844,55.61943]},"properties":{"osm_id":952302326,"name":"Чертановская улица, 28","routes":[1]}},{"type":"Feature","geometry":{"type":"Point","coordinates":[37.6056508,55.6403651]},"properties":{"osm_id":952302329,"name":"Метро «Чертановская»","routes":[1]}},{"type":"Feature","geometry":{"type":"Point","coordinates":[37.5986274,55.6285186]},"properties":{"osm_id":952302338,"name":"Школьный парк","routes":[1]}},{"type":"Feature","geometry":{"type":"Point","coordinates":[37.5884766,55.5987032]},"properties":{"osm_id":952302345,"name":"Поликлиника","routes":[1]}},{"type":"Feature","geometry":{"type":"Point","coordinates":[37.592022,55.6134325]},"properties":{"osm_id":952302376,"name":"Чертаново-Центральное","routes":[1]}},{"type":"Feature","geometry":{"type":"Point","coordinates":[37.5903031,55.6062561]},"properties":{"osm_id":952302380,"name":"Кировоградские пруды","routes":[1]}},{"type":"Feature","geometry":{"type":"Point","coordinates":[37.6054835,55.6529207]},"properties":{"osm_id":996689312,"name":"Метро «Каховская»","routes":[1]}},{"type":"Feature","geometry":{"type":"Point","coordinates":[37.6055584,55.6494472]},"properties":{"osm_id":996689315,"name":"Симферопольский бульвар, 20","routes":[1]}},{"type":"Feature","geometry":{"type":"Point","coordinates":[37.6056747,55.6430034]},"properties":{"osm_id":996689318,"name":"Балаклавский проспект","routes":[1]}},{"type":"Feature","geometry":{"type":"Point","coordinates":[37.6056246,55.6451942]},"properties":{"osm_id":996689322,"name":"Черноморский бульвар","routes":[1]}},{"type":"Feature","geometry":{"type":"Point","coordinates":[37.6286054,55.8218406]},"properties":{"osm_id":1046561946,"name":"Улица Цандера","routes":[11,17]}},{"type":"Feature","geometry":{"type":"Point","coordinates":[37.6339085,55.822092]},"properties":{"osm_id":1046562062,"name":"ВДНХ (южный вход)","routes":[11,17]}},{"type":"Feature","geometry":{"type":"Point","coordinates":[37.6377818,55.8718418]},"properties":{"osm_id":1098591539,"name":"МФЦ «Южное Медведково»","routes":[17]}},{"type":"Feature","geometry":{"type":"Point","coordinates":[37.6388938,55.8815736]},"properties":{"osm_id":1098654108,"name":"Поликлиника","routes":[17]}},{"type":"Feature","geometry":{"type":"Point","coordinates":[37.7401876,55.7569129]},"properties":{"osm_id":1240945404,"name":"Гаражная улица","routes":[12]}},{"type":"Feature","geometry":{"type":"Point","coordinates":[37.7248082,55.7737288]},"properties":{"osm_id":1240945431,"name":"Стадион «Крылья Советов»","routes":[12]}},{"type":"Feature","geometry":{"type":"Point","coordinates":[37.7365245,55.7609137]},"properties":{"osm_id":1240945509,"name":"3-я улица Соколиной Горы","routes":[12]}},{"type":"Feature","geometry":{"type":"Point","coordinates":[37.7342825,55.7633396]},"properties":{"osm_id":1240945520,"name":"5-я улица Соколиной Горы","routes":[12]}},{"type":"Feature","geometry":{"type":"Point","coordinates":[37.7214071,55.7774559]},"properties":{"osm_id":1240945537,"name":"Кирпичная улица","routes":[12]}},{"type":"Feature","geometry":{"type":"Point","coordinates":[37.7323525,55.7654149]},"properties":{"osm_id":1240945554,"name":"Проспект Будённого, 24","routes":[12]}},{"type":"Feature","geometry":{"type":"Point","coordinates":[37.7283335,55.7698304]},"properties":{"osm_id":1240945606,"name":"9-я улица Соколиной Горы","routes":[12]}},{"type":"Feature","geometry":{"type":"Point","coordinates":[37.6108477,55.7826567]},"properties":{"osm_id":1257401460,"name":"Улица Достоевского","routes":[7]}},{"type":"Feature","geometry":{"type":"Point","coordinates":[37.6027211,55.7852254]},"properties":{"osm_id":1257401467,"name":"Улица Палиха","routes":[7]}},{"type":"Feature","geometry":{"type":"Point","coordinates":[37.6131408,55.7794186]},"properties":{"osm_id":1257401477,"name":"4-й Самотёчный переулок","routes":[7]}},{"type":"Feature","geometry":{"type":"Point","coordinates":[37.6309371,55.7797081]},"properties":{"osm_id":1257401479,"name":"Улица Гиляровского","routes":[7]}},{"type":"Feature","geometry":{"type":"Point","coordinates":[37.6295646,55.7783415]},"properties":{"osm_id":1257401483,"name":"Улица Щепкина","routes":[7]}},{"type":"Feature","geometry":{"type":"Point","coordinates":[37.6629956,55.7312027]},"properties":{"osm_id":1377604237,"name":"Метро «Пролетарская»","routes":[12]}},{"type":"Feature","geometry":{"type":"Point","coordinates":[37.6640683,55.7314086]},"properties":{"osm_id":1377604239,"name":"Метро «Пролетарская»","routes":[12]}},{"type":"Feature","geometry":{"type":"Point","coordinates":[37.605352,55.655994]},"properties":{"osm_id":1381710531,"name":"Болотниковская улица","routes":[1]}},{"type":"Feature","geometry":{"type":"Point","coordinates":[37.6054902,55.6491778]},"properties":{"osm_id":1381710553,"name":"Симферопольский бульвар, 20","routes":[1]}},{"type":"Feature","geometry":{"type":"Point","coordinates":[37.6054067,55.6536252]},"properties":{"osm_id":1381710556,"name":"Метро «Каховская»","routes":[1]}},{"type":"Feature","geometry":{"type":"Point","coordinates":[37.6055469,55.6455234]},"properties":{"osm_id":1381710560,"name":"Черноморский бульвар","routes":[1]}},{"type":"Feature","geometry":{"type":"Point","coordinates":[37.778545,55.7922097]},"properties":{"osm_id":1468321457,"name":"Измайловская площадь","routes":[11,12]}},{"type":"Feature","geometry":{"type":"Point","coordinates":[37.7746675,55.7913317]},"properties":{"osm_id":1468321464,"name":"Измайловская площадь","routes":[11,12]}},{"type":"Feature","geometry":{"type":"Point","coordinates":[37.8065758,55.7933523]},"properties":{"osm_id":1468321473,"name":"Районный центр «Первомайский»","routes":[11,12]}},{"type":"Feature","geometry":{"type":"Point","coordinates":[37.8045229,55.7933493]},"properties":{"osm_id":1468321477,"name":"Районный центр «Первомайский»","routes":[11,12]}},{"type":"Feature","geometry":{"type":"Point","coordinates":[37.7723171,55.7905847]},"properties":{"osm_id":1468321481,"name":"Галерея «Измайлово»","routes":[12]}},{"type":"Feature","geometry":{"type":"Point","coordinates":[37.7511246,55.7866072]},"properties":{"osm_id":1468321511,"name":"Метро «Партизанская»","routes":[11,12]}},{"type":"Feature","geometry":{"type":"Point","coordinates":[37.800666,55.7932507]},"properties":{"osm_id":1468321514,"name":"Метро «Первомайская»","routes":[11,12]}},{"type":"Feature","geometry":{"type":"Point","coordinates":[37.7983325,55.7932646]},"properties":{"osm_id":1468321517,"name":"Метро «Первомайская»","routes":[11,12]}},{"type":"Feature","geometry":{"type":"Point","coordinates":[37.820891,55.7936335]},"properties":{"osm_id":1468322377,"name":"Восточное Измайлово","routes":[11,12]}},{"type":"Feature","geometry":{"type":"Point","coordinates":[37.8133823,55.7934768]},"properties":{"osm_id":1468322481,"name":"13-я Парковая улица","routes":[11,12]}},{"type":"Feature","geometry":{"type":"Point","coordinates":[37.8118479,55.7934805]},"properties":{"osm_id":1468322484,"name":"13-я Парковая улица","routes":[11,12]}},{"type":"Feature","geometry":{"type":"Point","coordinates":[37.8202296,55.7935885]},"properties":{"osm_id":1468322487,"name":"15-я Парковая улица","routes":[11,12]}},{"type":"Feature","geometry":{"type":"Point","coordinates":[37.818272,55.7935877]},"properties":{"osm_id":1468322489,"name":"15-я Парковая улица","routes":[11,12]}},{"type":"Feature","geometry":{"type":"Point","coordinates":[37.8226082,55.7936236]},"properties":{"osm_id":1468322492,"name":"Восточное Измайлово","routes":[12]}},{"type":"Feature","geometry":{"type":"Point","coordinates":[37.7839766,55.7929143]},"properties":{"osm_id":1468322504,"name":"3-я Парковая улица","routes":[11,12]}},{"type":"Feature","geometry":{"type":"Point","coordinates":[37.7819983,55.7927325]},"properties":{"osm_id":1468322508,"name":"3-я Парковая улица","routes":[11,12]}},{"type":"Feature","geometry":{"type":"Point","coordinates":[37.7891373,55.7930591]},"properties":{"osm_id":1468322520,"name":"5-я Парковая улица","routes":[11,12]}},{"type":"Feature","geometry":{"type":"Point","coordinates":[37.7873217,55.7930605]},"properties":{"osm_id":1468322521,"name":"5-я Парковая улица","routes":[11,12]}},{"type":"Feature","geometry":{"type":"Point","coordinates":[37.7948796,55.7932051]},"properties":{"osm_id":1468322522,"name":"7-я Парковая улица","routes":[11,12]}},{"type":"Feature","geometry":{"type":"Point","coordinates":[37.7930404,55.7932036]},"properties":{"osm_id":1468322523,"name":"7-я Парковая улица","routes":[11,12]}},{"type":"Feature","geometry":{"type":"Point","coordinates":[37.7297544,55.782619]},"properties":{"osm_id":1475230072,"name":"Улица Ибрагимова","routes":[11,12]}},{"type":"Feature","geometry":{"type":"Point","coordinates":[37.7310291,55.7826955]},"properties":{"osm_id":1475230075,"name":"Улица Ибрагимова","routes":[11,12]}},{"type":"Feature","geometry":{"type":"Point","coordinates":[37.7203543,55.7822559]},"properties":{"osm_id":1475230084,"name":"Метро «Семёновская»","routes":[11,12]}},{"type":"Feature","geometry":{"type":"Point","coordinates":[37.7213594,55.7823168]},"properties":{"osm_id":1475230086,"name":"Метро «Семёновская»","routes":[11,12]}},{"type":"Feature","geometry":{"type":"Point","coordinates":[37.7384266,55.782967]},"properties":{"osm_id":1475230089,"name":"Фортунатовская улица","routes":[11,12]}},{"type":"Feature","geometry":{"type":"Point","coordinates":[37.7391403,55.7830217]},"properties":{"osm_id":1475230092,"name":"Фортунатовская улица","routes":[11,12]}},{"type":"Feature","geometry":{"type":"Point","coordinates":[37.7171421,55.7871881]},"properties":{"osm_id":1475300537,"name":"Улица Измайловский Вал","routes":[11]}},{"type":"Feature","geometry":{"type":"Point","coordinates":[37.7171279,55.7870138]},"properties":{"osm_id":1475300542,"name":"Улица Измайловский Вал","routes":[11]}},{"type":"Feature","geometry":{"type":"Point","coordinates":[37.7183203,55.783506]},"properties":{"osm_id":1475300562,"name":"Метро «Семёновская»","routes":[11]}},{"type":"Feature","geometry":{"type":"Point","coordinates":[37.7458895,55.7839713]},"properties":{"osm_id":1478068142,"name":"Мост Окружной железной дороги","routes":[11,12]}},{"type":"Feature","geometry":{"type":"Point","coordinates":[37.745951,55.7839731]},"properties":{"osm_id":1478068143,"name":"Мост Окружной железной дороги","routes":[11,12]}},{"type":"Feature","geometry":{"type":"Point","coordinates":[37.6950191,55.7479046]},"properties":{"osm_id":1642037491,"name":"Старообрядческая улица","routes":[12]}},{"type":"Feature","geometry":{"type":"Point","coordinates":[37.6621394,55.8217922]},"properties":{"osm_id":1677617703,"name":"Площадь Академика Люльки","routes":[11]}},{"type":"Feature","geometry":{"type":"Point","coordinates":[37.6614911,55.8219602]},"properties":{"osm_id":1677617709,"name":"Площадь Академика Люльки","routes":[11]}},{"type":"Feature","geometry":{"type":"Point","coordinates":[37.6487246,55.8263898]},"properties":{"osm_id":1677617714,"name":"Проспект Мира","routes":[11]}},{"type":"Feature","geometry":{"type":"Point","coordinates":[37.6586016,55.8228406]},"properties":{"osm_id":1677617737,"name":"улица Бориса Галушкина, 17","routes":[11]}},{"type":"Feature","geometry":{"type":"Point","coordinates":[37.658004,55.8230517]},"properties":{"osm_id":1677617745,"name":"улица Бориса Галушкина, 17","routes":[11]}},{"type":"Feature","geometry":{"type":"Point","coordinates":[37.6523865,55.8249588]},"properties":{"osm_id":1677617750,"name":"Ярославская улица","routes":[11]}},{"type":"Feature","geometry":{"type":"Point","coordinates":[37.6522783,55.8249706]},"properties":{"osm_id":1677617756,"name":"Ярославская улица","routes":[11]}},{"type":"Feature","geometry":{"type":"Point","coordinates":[37.7165351,55.789071]},"properties":{"osm_id":1865721070,"name":"Улица Преображенский Вал","routes":[11]}},{"type":"Feature","geometry":{"type":"Point","coordinates":[37.5897182,55.7792403]},"properties":{"osm_id":1927810164,"name":"ДК Зуева","routes":[7]}},{"type":"Feature","geometry":{"type":"Point","coordinates":[37.5892979,55.7789959]},"properties":{"osm_id":1927810165,"name":"ДК Зуева","routes":[7]}},{"type":"Feature","geometry":{"type":"Point","coordinates":[37.6866194,55.79145]},"properties":{"osm_id":1984517976,"name":"Клуб Русакова - Сцена «Мельников»","routes":[7]}},{"type":"Feature","geometry":{"type":"Point","coordinates":[37.6911894,55.7932342]},"properties":{"osm_id":1984518151,"name":"Малая Остроумовская улица","routes":[7]}},{"type":"Feature","geometry":{"type":"Point","coordinates":[37.6982848,55.7943627]},"properties":{"osm_id":1984518163,"name":"Трамвайное депо имени Русакова","routes":[7]}},{"type":"Feature","geometry":{"type":"Point","coordinates":[37.6994592,55.7945373]},"properties":{"osm_id":1984518173,"name":"Трамвайное депо имени Русакова","routes":[7]}},{"type":"Feature","geometry":{"type":"Point","coordinates":[37.7099613,55.7951809]},"properties":{"osm_id":1984518195,"name":"Преображенская площадь","routes":[7]}},{"type":"Feature","geometry":{"type":"Point","coordinates":[37.7091523,55.7952214]},"properties":{"osm_id":1984518219,"name":"Преображенская площадь","routes":[7]}},{"type":"Feature","geometry":{"type":"Point","coordinates":[37.6906143,55.7930579]},"properties":{"osm_id":1984534523,"name":"Малая Остроумовская улица","routes":[7]}},{"type":"Feature","geometry":{"type":"Point","coordinates":[37.6953421,55.8146857]},"properties":{"osm_id":1984653750,"name":"Богородский храм","routes":[7]}},{"type":"Feature","geometry":{"type":"Point","coordinates":[37.6960486,55.8150507]},"properties":{"osm_id":1984653753,"name":"Богородский храм","routes":[7]}},{"type":"Feature","geometry":{"type":"Point","coordinates":[37.7006106,55.8166403]},"properties":{"osm_id":1984653757,"name":"Богородское","routes":[7]}},{"type":"Feature","geometry":{"type":"Point","coordinates":[37.7011362,55.8170058]},"properties":{"osm_id":1984653772,"name":"Богородское","routes":[7]}},{"type":"Feature","geometry":{"type":"Point","coordinates":[37.7156669,55.8185109]},"properties":{"osm_id":1984653779,"name":"Игральная улица","routes":[7]}},{"type":"Feature","geometry":{"type":"Point","coordinates":[37.7162437,55.818297]},"properties":{"osm_id":1984653782,"name":"Игральная улица","routes":[7]}},{"type":"Feature","geometry":{"type":"Point","coordinates":[37.7049436,55.8188569]},"properties":{"osm_id":1984653783,"name":"Ланинский переулок","routes":[7]}},{"type":"Feature","geometry":{"type":"Point","coordinates":[37.7052788,55.8189526]},"properties":{"osm_id":1984653797,"name":"Ланинский переулок","routes":[7]}},{"type":"Feature","geometry":{"type":"Point","coordinates":[37.7098304,55.819713]},"properties":{"osm_id":1984653803,"name":"Погонный проезд","routes":[7]}},{"type":"Feature","geometry":{"type":"Point","coordinates":[37.7101928,55.8197433]},"properties":{"osm_id":1984653805,"name":"Погонный проезд","routes":[7]}},{"type":"Feature","geometry":{"type":"Point","coordinates":[37.7217525,55.8182949]},"properties":{"osm_id":1984653987,"name":"3-й проезд Подбельского","routes":[7]}},{"type":"Feature","geometry":{"type":"Point","coordinates":[37.7210193,55.8181211]},"properties":{"osm_id":1984654046,"name":"3-й проезд Подбельского","routes":[7]}},{"type":"Feature","geometry":{"type":"Point","coordinates":[37.7266525,55.816937]},"properties":{"osm_id":1984654065,"name":"5-й проезд Подбельского","routes":[7]}},{"type":"Feature","geometry":{"type":"Point","coordinates":[37.725986,55.8170884]},"properties":{"osm_id":1984654067,"name":"5-й проезд Подбельского","routes":[7]}},{"type":"Feature","geometry":{"type":"Point","coordinates":[37.7072979,55.8045675]},"properties":{"osm_id":1984681574,"name":"Мосгорсуд","routes":[7,11]}},{"type":"Feature","geometry":{"type":"Point","coordinates":[37.7071638,55.8047883]},"properties":{"osm_id":1984681577,"name":"Мосгорсуд","routes":[7,11]}},{"type":"Feature","geometry":{"type":"Point","coordinates":[37.7064271,55.8068477]},"properties":{"osm_id":1984681580,"name":"Телерадиокомпания «Мир»","routes":[7,11]}},{"type":"Feature","geometry":{"type":"Point","coordinates":[37.7062274,55.8071635]},"properties":{"osm_id":1984681582,"name":"Телерадиокомпания «Мир»","routes":[7,11]}},{"type":"Feature","geometry":{"type":"Point","coordinates":[37.7147987,55.7971751]},"properties":{"osm_id":1984681607,"name":"Метро «Преображенская площадь»","routes":[7,11]}},{"type":"Feature","geometry":{"type":"Point","coordinates":[37.7146709,55.7977091]},"properties":{"osm_id":1984681612,"name":"Метро «Преображенская площадь»","routes":[7,11]}},{"type":"Feature","geometry":{"type":"Point","coordinates":[37.7128303,55.799953]},"properties":{"osm_id":1984681614,"name":"Улица Хромова","routes":[7,11]}},{"type":"Feature","geometry":{"type":"Point","coordinates":[37.7126904,55.8001894]},"properties":{"osm_id":1984681624,"name":"Улица Хромова","routes":[7,11]}},{"type":"Feature","geometry":{"type":"Point","coordinates":[37.6978374,55.8123893]},"properties":{"osm_id":1984681642,"name":"Инновационный университет","routes":[7,11]}},{"type":"Feature","geometry":{"type":"Point","coordinates":[37.6975726,55.8125354]},"properties":{"osm_id":1984681646,"name":"Инновационный университет","routes":[7,11]}},{"type":"Feature","geometry":{"type":"Point","coordinates":[37.7039343,55.8099066]},"properties":{"osm_id":1984682066,"name":"1-я Прогонная улица","routes":[7,11]}},{"type":"Feature","geometry":{"type":"Point","coordinates":[37.7034529,55.8101641]},"properties":{"osm_id":1984682069,"name":"1-я Прогонная улица","routes":[7,11]}},{"type":"Feature","geometry":{"type":"Point","coordinates":[37.6702733,55.7815948]},"properties":{"osm_id":1992978966,"name":"Леснорядская улица","routes":[7]}},{"type":"Feature","geometry":{"type":"Point","coordinates":[37.6705396,55.7817007]},"properties":{"osm_id":1992978967,"name":"Леснорядская улица","routes":[7]}},{"type":"Feature","geometry":{"type":"Point","coordinates":[37.6665866,55.7796973]},"properties":{"osm_id":1992978970,"name":"Метро «Красносельская»","routes":[7]}},{"type":"Feature","geometry":{"type":"Point","coordinates":[37.6809737,55.7893074]},"properties":{"osm_id":1992978972,"name":"Метро «Сокольники»","routes":[7]}},{"type":"Feature","geometry":{"type":"Point","coordinates":[37.6810069,55.7892854]},"properties":{"osm_id":1992979018,"name":"Метро «Сокольники»","routes":[7]}},{"type":"Feature","geometry":{"type":"Point","coordinates":[37.6496992,55.7762135]},"properties":{"osm_id":2214943613,"name":"Каланчёвская улица","routes":[7]}},{"type":"Feature","geometry":{"type":"Point","coordinates":[37.6712839,55.8190883]},"properties":{"osm_id":2447720025,"name":"Станция юных натуралистов","routes":[11]}},{"type":"Feature","geometry":{"type":"Point","coordinates":[37.6765805,55.7429023]},"properties":{"osm_id":2793196397,"name":"Новорогожская улица","routes":[12]}},{"type":"Feature","geometry":{"type":"Point","coordinates":[37.6815721,55.7468677]},"properties":{"osm_id":3006961598,"name":"Метро «Площадь Ильича»","routes":[12]}},{"type":"Feature","geometry":{"type":"Point","coordinates":[37.6104435,55.783144]},"properties":{"osm_id":3007312924,"name":"Улица Достоевского","routes":[7]}},{"type":"Feature","geometry":{"type":"Point","coordinates":[37.7011578,55.7486484]},"properties":{"osm_id":3015998527,"name":"Душинская улица","routes":[12]}},{"type":"Feature","geometry":{"type":"Point","coordinates":[37.6232933,55.7790401]},"properties":{"osm_id":3016214896,"name":"Театр зверей имени Дурова","routes":[7]}},{"type":"Feature","geometry":{"type":"Point","coordinates":[37.6231966,55.7790904]},"properties":{"osm_id":3016214907,"name":"Театр зверей имени Дурова","routes":[7]}},{"type":"Feature","geometry":{"type":"Point","coordinates":[37.6090907,55.7805585]},"properties":{"osm_id":3016716232,"name":"Селезнёвская улица","routes":[7]}},{"type":"Feature","geometry":{"type":"Point","coordinates":[37.6091909,55.7811663]},"properties":{"osm_id":3016721033,"name":"Селезнёвская улица","routes":[7]}},{"type":"Feature","geometry":{"type":"Point","coordinates":[37.6172291,55.8227374]},"properties":{"osm_id":3236023227,"name":"Усадьба Останкино","routes":[11,17]}},{"type":"Feature","geometry":{"type":"Point","coordinates":[37.6168427,55.7785719]},"properties":{"osm_id":3598834231,"name":"Самотёчная улица","routes":[7]}},{"type":"Feature","geometry":{"type":"Point","coordinates":[37.6758022,55.7853273]},"properties":{"osm_id":3599958536,"name":"МЦД Митьково","routes":[7]}},{"type":"Feature","geometry":{"type":"Point","coordinates":[37.6755108,55.7850787]},"properties":{"osm_id":3599958537,"name":"МЦД Митьково","routes":[7]}},{"type":"Feature","geometry":{"type":"Point","coordinates":[37.6420429,55.7796845]},"properties":{"osm_id":4291989484,"name":"Астраханский переулок","routes":[7]}},{"type":"Feature","geometry":{"type":"Point","coordinates":[37.5962169,55.7836325]},"properties":{"osm_id":4291989485,"name":"Лесная улица","routes":[7]}},{"type":"Feature","geometry":{"type":"Point","coordinates":[37.5965074,55.7837955]},"properties":{"osm_id":4291992592,"name":"Лесная улица","routes":[7]}},{"type":"Feature","geometry":{"type":"Point","coordinates":[37.6003807,55.7847403]},"properties":{"osm_id":4291992598,"name":"Улица Палиха","routes":[7]}},{"type":"Feature","geometry":{"type":"Point","coordinates":[37.5923727,55.7809631]},"properties":{"osm_id":4291992645,"name":"Миусское депо","routes":[7]}},{"type":"Feature","geometry":{"type":"Point","coordinates":[37.6323751,55.7806137]},"properties":{"osm_id":4656724435,"name":"Спорткомплекс «Олимпийский»","routes":[7]}},{"type":"Feature","geometry":{"type":"Point","coordinates":[37.6322647,55.7806765]},"properties":{"osm_id":4656724436,"name":"Спорткомплекс «Олимпийский»","routes":[7]}},{"type":"Feature","geometry":{"type":"Point","coordinates":[37.7706495,55.7901232]},"properties":{"osm_id":4725748726,"name":"Галерея «Измайлово»","routes":[11,12]}},{"type":"Feature","geometry":{"type":"Point","coordinates":[37.6865268,55.7914494]},"properties":{"osm_id":4886737498,"name":"Клуб Русакова - Сцена «Мельников»","routes":[7]}},{"type":"Feature","geometry":{"type":"Point","coordinates":[37.6789019,55.745225]},"properties":{"osm_id":4886738267,"name":"Библиотечная улица","routes":[12]}},{"type":"Feature","geometry":{"type":"Point","coordinates":[37.7377743,55.7557426]},"properties":{"osm_id":4886738300,"name":"Улица Буракова","routes":[12]}},{"type":"Feature","geometry":{"type":"Point","coordinates":[37.7375763,55.7557358]},"properties":{"osm_id":4886738301,"name":"Улица Буракова","routes":[12]}},{"type":"Feature","geometry":{"type":"Point","coordinates":[37.5835607,55.7763827]},"properties":{"osm_id":5041552959,"name":"Белорусский вокзал","routes":[7]}},{"type":"Feature","geometry":{"type":"Point","coordinates":[37.5866005,55.7772017]},"properties":{"osm_id":6173481392,"name":"Метро «Белорусская»","routes":[7]}},{"type":"Feature","geometry":{"type":"Point","coordinates":[37.5862523,55.7770315]},"properties":{"osm_id":6173481393,"name":"Метро «Белорусская»","routes":[7]}},{"type":"Feature","geometry":{"type":"Point","coordinates":[37.5921057,55.780823]},"properties":{"osm_id":6180449287,"name":"Миусское депо","routes":[7]}},{"type":"Feature","geometry":{"type":"Point","coordinates":[37.7203255,55.7523273]},"properties":{"osm_id":7618078828,"name":"Метро «Авиамоторная»","routes":[12]}},{"type":"Feature","geometry":{"type":"Point","coordinates":[37.7205977,55.7524097]},"properties":{"osm_id":7618078829,"name":"Метро «Авиамоторная»","routes":[12]}},{"type":"Feature","geometry":{"type":"Point","coordinates":[37.6009867,55.6313691]},"properties":{"osm_id":8270024933,"name":"Футбольная школа «Чертаново»","routes":[1]}},{"type":"Feature","geometry":{"type":"Point","coordinates":[37.7182944,55.7834231]},"properties":{"osm_id":10665892060,"name":"Метро «Семёновская»","routes":[11]}},{"type":"Feature","geometry":{"type":"Point","coordinates":[37.6939936,55.8148875]},"properties":{"osm_id":10707781450,"name":"Богородский храм","routes":[11]}},{"type":"Feature","geometry":{"type":"Point","coordinates":[37.5928734,55.6164951]},"properties":{"osm_id":10865222673,"name":"Детская стоматологическая поликлиника","routes":[1]}},{"type":"Feature","geometry":{"type":"Point","coordinates":[37.5929108,55.6163903]},"properties":{"osm_id":10865222674,"name":"Детская стоматологическая поликлиника","routes":[1]}},{"type":"Feature","geometry":{"type":"Point","coordinates":[37.5909208,55.6092164]},"properties":{"osm_id":10865222687,"name":"Чертановская улица, 44","routes":[1]}},{"type":"Feature","geometry":{"type":"Point","coordinates":[37.6086138,55.6584006]},"properties":{"osm_id":10865231046,"name":"Москворецкий рынок","routes":[1]}},{"type":"Feature","geometry":{"type":"Point","coordinates":[37.7186448,55.7816286]},"properties":{"osm_id":10981951406,"name":"Семёновская площадь","routes":[12]}},{"type":"Feature","geometry":{"type":"Point","coordinates":[37.650312,55.7757977]},"properties":{"osm_id":11987259526,"name":"Каланчёвская улица","routes":[7]}},{"type":"Feature","geometry":{"type":"Point","coordinates":[37.7088491,55.7500504]},"properties":{"osm_id":12255909526,"name":"Горбатый путепровод","routes":[12]}},{"type":"Feature","geometry":{"type":"Point","coordinates":[37.7090873,55.7501287]},"properties":{"osm_id":12255909527,"name":"Горбатый путепровод","routes":[12]}},{"type":"Feature","geometry":{"type":"Point","coordinates":[37.6049313,55.7851935]},"properties":{"osm_id":12464935103,"name":"Площадь Борьбы","routes":[7]}},{"type":"Feature","geometry":{"type":"Point","coordinates":[37.6069101,55.7843377]},"properties":{"osm_id":12464935104,"name":"Площадь Борьбы","routes":[7]}},{"type":"Feature","geometry":{"type":"Point","coordinates":[37.6527737,55.7746859]},"properties":{"osm_id":13134322142,"name":"МЦД Площадь трёх вокзалов","routes":[7]}},{"type":"Feature","geometry":{"type":"Point","coordinates":[37.6528508,55.7745787]},"properties":{"osm_id":13134322143,"name":"МЦД Площадь трёх вокзалов","routes":[7]}},{"type":"Feature","geometry":{"type":"Point","coordinates":[37.6531564,55.7746318]},"properties":{"osm_id":13134322144,"name":"МЦД Площадь трёх вокзалов","routes":[7]}},{"type":"Feature","geometry":{"type":"Point","coordinates":[37.6724428,55.7379807]},"properties":{"osm_id":13596692006,"name":"Абельмановская Застава","routes":[12]}},{"type":"Feature","geometry":{"type":"Point","coordinates":[37.771396,55.7903089]},"properties":{"osm_id":13910949174,"name":"Галерея «Измайлово»","routes":[11]}},{"type":"Feature","geometry":{"type":"Point","coordinates":[37.7155747,55.7917926]},"properties":{"osm_id":14222056863,"name":"Преображенское кладбище","routes":[11]}},{"type":"Feature","geometry":{"type":"Point","coordinates":[37.7152501,55.7920437]},"properties":{"osm_id":14222056864,"name":"Преображенское кладбище","routes":[11]}},{"type":"Feature","geometry":{"type":"Point","coordinates":[37.7145206,55.794626]},"properties":{"osm_id":14222056865,"name":"Метро «Преображенская площадь»","routes":[11]}},{"type":"Feature","geometry":{"type":"Point","coordinates":[37.7165333,55.7893386]},"properties":{"osm_id":14222214581,"name":"Улица Преображенский Вал","routes":[11]}}]}
